{"type": "FeatureCollection", "features": [ {"type": "Feature", "properties": {"norad_id": 37498, "name": "COSMOS 2251 DEB", "group": "cosmos-2251-debris", "lat": -68.80109407563754, "lon": 71.20778092601051, "alt_km": 707.7926331206227, "timestamp": "2025-12-02T07:10:09.514066+00:00", "meta": {"OBJECT_NAME": "COSMOS 2251 DEB", "OBJECT_ID": "1993-036BMB", "EPOCH": "2025-11-25T08:56:38.546304", "MEAN_MOTION": 14.54652279, "ECCENTRICITY": 0.00134189, "INCLINATION": 74.0363, "RA_OF_ASC_NODE": 216.7419, "ARG_OF_PERICENTER": 278.5504, "MEAN_ANOMALY": 81.4138, "EPHEMERIS_TYPE": 0, "CLASSIFICATION_TYPE": "U", "NORAD_CAT_ID": 37498, "ELEMENT_SET_NO": 999, "REV_AT_EPOCH": 65102, "BSTAR": 0.001010673, "MEAN_MOTION_DOT": 4.299e-05, "MEAN_MOTION_DDOT": 0}, "tle": {"line1": "1 37498U 93036BMB 25329.37266836  .00004299  00000+0  10107-2 0  9998", "line2": "2 37498  74.0363 216.7419 0013418 278.5504  81.4138 14.54652279651028"}}, "geometry": {"type": "Point", "coordinates": [71.20778092601051, -68.80109407563754]}}, {"type": "Feature", "properties": {"norad_id": 37499, "name": "COSMOS 2251 DEB", "group": "cosmos-2251-debris", "lat": 24.87241122956583, "lon": 153.6805301876839, "alt_km": 777.2757101727057, "timestamp": "2025-12-02T07:10:09.514076+00:00", "meta": {"OBJECT_NAME": "COSMOS 2251 DEB", "OBJECT_ID": "1993-036BMC", "EPOCH": "2025-12-01T10:22:10.012512", "MEAN_MOTION": 14.34324837, "ECCENTRICITY": 0.0026595, "INCLINATION": 74.0374, "RA_OF_ASC_NODE": 342.8917, "ARG_OF_PERICENTER": 62.4441, "MEAN_ANOMALY": 297.9408, "EPHEMERIS_TYPE": 0, "CLASSIFICATION_TYPE": "U", "NORAD_CAT_ID": 37499, "ELEMENT_SET_NO": 999, "REV_AT_EPOCH": 84987, "BSTAR": 0.00017946924, "MEAN_MOTION_DOT": 4.8e-06, "MEAN_MOTION_DDOT": 0}, "tle": {"line1": "1 37499U 93036BMC 25335.43206033  .00000480  00000+0  17947-3 0  9994", "line2": "2 37499  74.0374 342.8917 0026595  62.4441 297.9408 14.34324837849875"}}, "geometry": {"type": "Point", "coordinates": [153.6805301876839, 24.87241122956583]}}, {"type": "Feature", "properties": {"norad_id": 37528, "name": "COSMOS 2251 DEB", "group": "cosmos-2251-debris", "lat": 58.715156425867946, "lon": 169.86271887948567, "alt_km": 728.0692547328472, "timestamp": "2025-12-02T07:10:09.514086+00:00", "meta": {"OBJECT_NAME": "COSMOS 2251 DEB", "OBJECT_ID": "1993-036BNH", "EPOCH": "2025-12-01T04:23:44.422656", "MEAN_MOTION": 14.50451173, "ECCENTRICITY": 0.0020905, "INCLINATION": 74.0362, "RA_OF_ASC_NODE": 143.8539, "ARG_OF_PERICENTER": 293.085, "MEAN_ANOMALY": 66.8106, "EPHEMERIS_TYPE": 0, "CLASSIFICATION_TYPE": "U", "NORAD_CAT_ID": 37528, "ELEMENT_SET_NO": 999, "REV_AT_EPOCH": 85763, "BSTAR": 0.0005005, "MEAN_MOTION_DOT": 1.935e-05, "MEAN_MOTION_DDOT": 0}, "tle": {"line1": "1 37528U 93036BNH 25335.18315304  .00001935  00000+0  50050-3 0  9999", "line2": "2 37528  74.0362 143.8539 0020905 293.0850  66.8106 14.50451173857632"}}, "geometry": {"type": "Point", "coordinates": [169.86271887948567, 58.715156425867946]}}, {"type": "Feature", "properties": {"norad_id": 37530, "name": "COSMOS 2251 DEB", "group": "cosmos-2251-debris", "lat": -30.991370846348378, "lon": -177.33394390255418, "alt_km": 798.8384600801155, "timestamp": "2025-12-02T07:10:09.514096+00:00", "meta": {"OBJECT_NAME": "COSMOS 2251 DEB", "OBJECT_ID": "1993-036BNK", "EPOCH": "2025-11-30T19:50:14.646624", "MEAN_MOTION": 14.34478642, "ECCENTRICITY": 0.00255427, "INCLINATION": 74.0356, "RA_OF_ASC_NODE": 355.4602, "ARG_OF_PERICENTER": 61.4891, "MEAN_ANOMALY": 111.2815, "EPHEMERIS_TYPE": 0, "CLASSIFICATION_TYPE": "U", "NORAD_CAT_ID": 37530, "ELEMENT_SET_NO": 999, "REV_AT_EPOCH": 85061, "BSTAR": 0.00021143929, "MEAN_MOTION_DOT": 5.72e-06, "MEAN_MOTION_DDOT": 0}, "tle": {"line1": "1 37530U 93036BNK 25334.82655841  .00000572  00000+0  21144-3 0  9993", "line2": "2 37530  74.0356 355.4602 0025542  61.4891 111.2815 14.34478642850619"}}, "geometry": {"type": "Point", "coordinates": [-177.33394390255418, -30.991370846348378]}}, {"type": "Feature", "properties": {"norad_id": 37532, "name": "COSMOS 2251 DEB", "group": "cosmos-2251-debris", "lat": 52.602507335742324, "lon": -102.96323468939761, "alt_km": 743.2092567569453, "timestamp": "2025-12-02T07:10:09.514106+00:00", "meta": {"OBJECT_NAME": "COSMOS 2251 DEB", "OBJECT_ID": "1993-036BNM", "EPOCH": "2025-11-30T12:27:06.962976", "MEAN_MOTION": 14.42376365, "ECCENTRICITY": 0.00155828, "INCLINATION": 74.0506, "RA_OF_ASC_NODE": 238.3668, "ARG_OF_PERICENTER": 340.6914, "MEAN_ANOMALY": 196.4661, "EPHEMERIS_TYPE": 0, "CLASSIFICATION_TYPE": "U", "NORAD_CAT_ID": 37532, "ELEMENT_SET_NO": 999, "REV_AT_EPOCH": 84739, "BSTAR": 0.00024978235, "MEAN_MOTION_DOT": 8e-06, "MEAN_MOTION_DDOT": 0}, "tle": {"line1": "1 37532U 93036BNM 25334.51883059  .00000800  00000+0  24978-3 0  9997", "line2": "2 37532  74.0506 238.3668 0015582 340.6914 196.4661 14.42376365847393"}}, "geometry": {"type": "Point", "coordinates": [-102.96323468939761, 52.602507335742324]}}, {"type": "Feature", "properties": {"norad_id": 37533, "name": "COSMOS 2251 DEB", "group": "cosmos-2251-debris", "lat": -21.65581514692298, "lon": 36.7217341822935, "alt_km": 810.2452999283505, "timestamp": "2025-12-02T07:10:09.514116+00:00", "meta": {"OBJECT_NAME": "COSMOS 2251 DEB", "OBJECT_ID": "1993-036BNN", "EPOCH": "2025-11-29T10:11:06.376704", "MEAN_MOTION": 14.12062169, "ECCENTRICITY": 0.015867, "INCLINATION": 74.069, "RA_OF_ASC_NODE": 215.2741, "ARG_OF_PERICENTER": 274.8904, "MEAN_ANOMALY": 83.4137, "EPHEMERIS_TYPE": 0, "CLASSIFICATION_TYPE": "U", "NORAD_CAT_ID": 37533, "ELEMENT_SET_NO": 999, "REV_AT_EPOCH": 62733, "BSTAR": 0.0013182372, "MEAN_MOTION_DOT": 2.695e-05, "MEAN_MOTION_DDOT": 0}, "tle": {"line1": "1 37533U 93036BNN 25333.42437936  .00002695  00000+0  13182-2 0  9994", "line2": "2 37533  74.0690 215.2741 0158670 274.8904  83.4137 14.12062169627331"}}, "geometry": {"type": "Point", "coordinates": [36.7217341822935, -21.65581514692298]}}, {"type": "Feature", "properties": {"norad_id": 37535, "name": "COSMOS 2251 DEB", "group": "cosmos-2251-debris", "lat": -8.116741205830296, "lon": -84.26960845743515, "alt_km": 688.0578131607945, "timestamp": "2025-12-02T07:10:09.514126+00:00", "meta": {"OBJECT_NAME": "COSMOS 2251 DEB", "OBJECT_ID": "1993-036BNQ", "EPOCH": "2025-12-01T07:21:29.090016", "MEAN_MOTION": 14.58310039, "ECCENTRICITY": 0.0028324, "INCLINATION": 74.0231, "RA_OF_ASC_NODE": 95.2774, "ARG_OF_PERICENTER": 235.5687, "MEAN_ANOMALY": 146.4843, "EPHEMERIS_TYPE": 0, "CLASSIFICATION_TYPE": "U", "NORAD_CAT_ID": 37535, "ELEMENT_SET_NO": 999, "REV_AT_EPOCH": 85158, "BSTAR": 0.0011087, "MEAN_MOTION_DOT": 5.13e-05, "MEAN_MOTION_DDOT": 0}, "tle": {"line1": "1 37535U 93036BNQ 25335.30658669  .00005130  00000+0  11087-2 0  9992", "line2": "2 37535  74.0231  95.2774 0028324 235.5687 146.4843 14.58310039851582"}}, "geometry": {"type": "Point", "coordinates": [-84.26960845743515, -8.116741205830296]}}, {"type": "Feature", "properties": {"norad_id": 37537, "name": "COSMOS 2251 DEB", "group": "cosmos-2251-debris", "lat": 73.22936658263151, "lon": -3.558771096734792, "alt_km": 725.47443973191, "timestamp": "2025-12-02T07:10:09.514136+00:00", "meta": {"OBJECT_NAME": "COSMOS 2251 DEB", "OBJECT_ID": "1993-036BNS", "EPOCH": "2025-11-27T06:31:08.077728", "MEAN_MOTION": 14.37456718, "ECCENTRICITY": 0.00498585, "INCLINATION": 74.011, "RA_OF_ASC_NODE": 293.6323, "ARG_OF_PERICENTER": 78.1221, "MEAN_ANOMALY": 282.5517, "EPHEMERIS_TYPE": 0, "CLASSIFICATION_TYPE": "U", "NORAD_CAT_ID": 37537, "ELEMENT_SET_NO": 999, "REV_AT_EPOCH": 84811, "BSTAR": 0.00024852763, "MEAN_MOTION_DOT": 7.28e-06, "MEAN_MOTION_DDOT": 0}, "tle": {"line1": "1 37537U 93036BNS 25331.27162127  .00000728  00000+0  24853-3 0  9999", "line2": "2 37537  74.0110 293.6323 0049858  78.1221 282.5517 14.37456718848111"}}, "geometry": {"type": "Point", "coordinates": [-3.558771096734792, 73.22936658263151]}}, {"type": "Feature", "properties": {"norad_id": 37546, "name": "COSMOS 2251 DEB", "group": "cosmos-2251-debris", "lat": -0.10726693126929733, "lon": 118.56259653513126, "alt_km": 636.9483975534749, "timestamp": "2025-12-02T07:10:09.514146+00:00", "meta": {"OBJECT_NAME": "COSMOS 2251 DEB", "OBJECT_ID": "1993-036BPB", "EPOCH": "2025-12-01T01:57:48.654432", "MEAN_MOTION": 14.7972634, "ECCENTRICITY": 0.00071974, "INCLINATION": 74.0208, "RA_OF_ASC_NODE": 120.9905, "ARG_OF_PERICENTER": 150.0376, "MEAN_ANOMALY": 210.1213, "EPHEMERIS_TYPE": 0, "CLASSIFICATION_TYPE": "U", "NORAD_CAT_ID": 37546, "ELEMENT_SET_NO": 999, "REV_AT_EPOCH": 65715, "BSTAR": 0.0028528218, "MEAN_MOTION_DOT": 0.0002149, "MEAN_MOTION_DDOT": 0}, "tle": {"line1": "1 37546U 93036BPB 25335.08181313  .00021490  00000+0  28528-2 0  9991", "line2": "2 37546  74.0208 120.9905 0007197 150.0376 210.1213 14.79726340657157"}}, "geometry": {"type": "Point", "coordinates": [118.56259653513126, -0.10726693126929733]}}, {"type": "Feature", "properties": {"norad_id": 37959, "name": "COSMOS 2251 DEB", "group": "cosmos-2251-debris", "lat": -52.83499197089579, "lon": 54.61416157800378, "alt_km": 700.5252645222017, "timestamp": "2025-12-02T07:10:09.514156+00:00", "meta": {"OBJECT_NAME": "COSMOS 2251 DEB", "OBJECT_ID": "1993-036BPJ", "EPOCH": "2025-12-01T13:23:10.736160", "MEAN_MOTION": 14.58009519, "ECCENTRICITY": 0.00585454, "INCLINATION": 74.0106, "RA_OF_ASC_NODE": 78.2498, "ARG_OF_PERICENTER": 223.2236, "MEAN_ANOMALY": 152.6035, "EPHEMERIS_TYPE": 0, "CLASSIFICATION_TYPE": "U", "NORAD_CAT_ID": 37959, "ELEMENT_SET_NO": 999, "REV_AT_EPOCH": 79964, "BSTAR": 0.00093616583, "MEAN_MOTION_DOT": 4.376e-05, "MEAN_MOTION_DDOT": 0}, "tle": {"line1": "1 37959U 93036BPJ 25335.55776315  .00004376  00000+0  93617-3 0  9999", "line2": "2 37959  74.0106  78.2498 0058545 223.2236 152.6035 14.58009519799647"}}, "geometry": {"type": "Point", "coordinates": [54.61416157800378, -52.83499197089579]}}]}